{"spkid": "54326659", "covariance": {"epoch": "2460077.5", "labels": ["e", "q", "tp", "node", "peri", "i"], "elements": [{"name": "e", "sigma": 4.67724429296711e-07, "title": "eccentricity", "value": ".1681521715439701", "units": null, "label": "e"}, {"units": "au", "value": ".8303667725818937", "title": "perihelion distance", "name": "q", "sigma": 4.69657001263131e-07, "label": "q"}, {"units": "TDB", "title": "time of perihelion passage", "value": "2459979.741317112466", "name": "tp", "sigma": 2.09798682443648e-05, "label": "tp"}, {"sigma": 5.38448146951223e-05, "name": "om", "title": "longitude of the ascending node", "value": "242.7272019164652", "units": "deg", "label": "node"}, {"sigma": 8.5874637070996e-05, "name": "w", "units": "deg", "value": "269.276262863538", "title": "argument of perihelion", "label": "peri"}, {"label": "i", "units": "deg", "title": "inclination", "value": "5.782653067386777", "name": "i", "sigma": 3.73263647552936e-05}], "data": [["2.18766141760934E-13", "-2.196654018922232E-13", "-9.256852015468855E-12", "-1.911150534044447E-11", "3.533086898215233E-11", "1.358063928233715E-11"], ["-2.196654018922232E-13", "2.205776988354764E-13", "9.283213299332132E-12", "1.924535579360647E-11", "-3.554309418858303E-11", "-1.367338926268184E-11"], ["-9.256852015468855E-12", "9.283213299332132E-12", "4.401548715509049E-10", "6.155691044854107E-10", "-1.253550834321921E-9", "-4.496904036605974E-10"], ["-1.911150534044447E-11", "1.924535579360647E-11", "6.155691044854107E-10", "2.899264069552062E-9", "-4.51125206663246E-9", "-2.008167482414404E-9"], ["3.533086898215233E-11", "-3.554309418858303E-11", "-1.253550834321921E-9", "-4.51125206663246E-9", "7.374453292075281E-9", "3.141264458209438E-9"], ["1.358063928233715E-11", "-1.367338926268184E-11", "-4.496904036605974E-10", "-2.008167482414404E-9", "3.141264458209438E-9", "1.393257505845224E-9"]]}, "elements": [{"sigma": "4.7011E-7", "name": "e", "value": ".1676519099020492", "title": "eccentricity", "units": null, "label": "e"}, {"label": "a", "sigma": "1.1413E-8", "name": "a", "units": "au", "value": ".9937670819978125", "title": "semi-major axis"}, {"name": "q", "sigma": "4.5778E-7", "title": "perihelion distance", "value": ".827160132703093", "units": "au", "label": "q"}, {"sigma": "3.7084E-5", "name": "i", "title": "inclination; angle with respect to x-y ecliptic plane", "value": "5.830309650107034", "units": "deg", "label": "i"}, {"label": "node", "name": "om", "sigma": "5.2058E-5", "units": "deg", "value": "242.5541239920905", "title": "longitude of the ascending node"}, {"label": "peri", "units": "deg", "title": "argument of perihelion", "value": "270.6111905940201", "name": "w", "sigma": "7.8063E-5"}, {"units": "deg", "value": "130.3593590858352", "title": "mean anomaly", "sigma": "1.457E-5", "name": "ma", "label": "M"}, {"value": "2461069.471716108938", "title": "time of perihelion passage", "units": "TDB", "name": "tp", "sigma": "1.6732E-5", "label": "tp"}, {"name": "per", "sigma": "6.2334E-6", "units": "d", "value": "361.8473006585044", "title": "sidereal orbital period", "label": "period"}, {"value": ".9948948060268998", "title": "mean motion", "units": "deg/d", "sigma": "1.7139E-8", "name": "n", "label": "n"}, {"sigma": "1.3326E-8", "name": "ad", "value": "1.160374031292532", "title": "aphelion distance", "units": "au", "label": "Q"}], "epoch": "2461200.5"}